NORAD_CAT_ID,OBJECT_NAME,OBJECT_TYPE,EPOCH,MEAN_MOTION,ECCENTRICITY,INCLINATION,RA_OF_ASC_NODE,ARG_OF_PERICENTER,MEAN_ANOMALY,BSTAR,MEAN_MOTION_DOT,MEAN_MOTION_DDOT,TLE_LINE0,TLE_LINE1,TLE_LINE2,SEMIMAJOR_AXIS,PERIOD,APOGEE,PERIGEE,DECAYED
50179.0,STARLINK-3283,PAYLOAD,2023-06-08 04:01:03,15.08837808,0.0001037,53.2168,83.0821,97.261,262.85,3.7796e-05,3.14e-06,0.0,0 STARLINK-3283,1 50179U 21125Z   23159.16740214  .00000314  00000-0  37796-4 0  9992,2 50179  53.2168  83.0821 0001037  97.2610 262.8500 15.08837808 84808,6917.887,95.438,540.469,539.035,0.0
50179.0,STARLINK-3283,PAYLOAD,2023-06-08 23:05:40,15.08836559,9.01e-05,53.2171,79.5119,99.2522,260.8572,0.00015316,2.15e-05,0.0,0 STARLINK-3283,1 50179U 21125Z   23159.96228003  .00002150  00000-0  15316-3 0  9990,2 50179  53.2171  79.5119 0000901  99.2522 260.8572 15.08836559 84433,6917.891,95.438,540.379,539.133,0.0
50179.0,STARLINK-3283,PAYLOAD,2023-06-09 03:51:49,15.08849059,0.0001022,53.2169,78.6196,112.4308,247.6792,0.0001344,1.852e-05,0.0,0 STARLINK-3283,1 50179U 21125Z   23160.16099207  .00001852  00000-0  13440-3 0  9990,2 50179  53.2169  78.6196 0001022 112.4308 247.6792 15.08849059 84469,6917.853,95.437,540.425,539.011,0.0
50179.0,STARLINK-3283,PAYLOAD,2023-06-09 11:48:46,15.08837289,0.0001279,53.2168,77.1306,121.3299,238.7818,6.2732e-05,7.11e-06,0.0,0 STARLINK-3283,1 50179U 21125Z   23160.49220086  .00000711  00000-0  62732-4 0  9999,2 50179  53.2168  77.1306 0001279 121.3299 238.7818 15.08837289 85000,6917.889,95.438,540.638,538.869,0.0
50179.0,STARLINK-3283,PAYLOAD,2023-06-10 11:39:33,15.08838967,0.0001013,53.2175,72.6729,95.1381,264.9727,2.7517e-05,1.5e-06,0.0,0 STARLINK-3283,1 50179U 21125Z   23161.48580389  .00000150  00000-0  27517-4 0  9993,2 50179  53.2175  72.6729 0001013  95.1381 264.9727 15.08838967 85153,6917.884,95.438,540.449,539.048,0.0
50179.0,STARLINK-3283,PAYLOAD,2023-06-11 00:22:38,15.08843151,0.0001053,53.2174,70.2942,100.3838,259.7273,-2.4304e-05,-6.75e-06,0.0,0 STARLINK-3283,1 50179U 21125Z   23162.01572317 -.00000675  00000-0 -24304-4 0  9990,2 50179  53.2174  70.2942 0001053 100.3838 259.7273 15.08843151 84746,6917.871,95.437,540.464,539.007,0.0
50179.0,STARLINK-3283,PAYLOAD,2023-06-11 11:30:20,15.08833159,0.0001111,53.2177,68.214,97.17,262.9418,0.00021072,3.067e-05,0.0,0 STARLINK-3283,1 50179U 21125Z   23162.47940386  .00003067  00000-0  21072-3 0  9999,2 50179  53.2177  68.2140 0001111  97.1700 262.9418 15.08833159 85309,6917.901,95.438,540.535,538.998,0.0
50179.0,STARLINK-3283,PAYLOAD,2023-06-11 17:51:52,15.08839046,0.0001157,53.2175,67.0254,87.064,273.0484,8.3881e-05,1.047e-05,0.0,0 STARLINK-3283,1 50179U 21125Z   23162.74436269  .00001047  00000-0  83881-4 0  9992,2 50179  53.2175  67.0254 0001157  87.0640 273.0484 15.08839046 85342,6917.883,95.438,540.549,538.948,0.0
50179.0,STARLINK-3283,PAYLOAD,2023-06-12 03:24:11,15.08851692,0.0001256,53.2179,65.2409,91.0182,269.0954,8.3656e-05,1.044e-05,0.0,0 STARLINK-3283,1 50179U 21125Z   23163.14179441  .00001044  00000-0  83656-4 0  9990,2 50179  53.2179  65.2409 0001256  91.0182 269.0954 15.08851692 84914,6917.845,95.437,540.579,538.841,0.0
50179.0,STARLINK-3283,PAYLOAD,2023-06-13 03:14:59,15.08837841,0.000114,53.2175,60.7805,91.3009,268.8114,-1.3437e-05,-5.02e-06,0.0,0 STARLINK-3283,1 50179U 21125Z   23164.13540653 -.00000502  00000-0 -13437-4 0  9997,2 50179  53.2175  60.7805 0001140  91.3009 268.8114 15.08837841 85065,6917.887,95.438,540.541,538.963,0.0
50179.0,STARLINK-3283,PAYLOAD,2023-06-14 03:05:46,15.08840137,9.52e-05,53.2178,56.3187,90.2336,269.8765,-2.9174e-06,-3.34e-06,0.0,0 STARLINK-3283,1 50179U 21125Z   23165.12900572 -.00000334  00000-0 -29174-5 0  9996,2 50179  53.2178  56.3187 0000952  90.2336 269.8765 15.08840137 85709,6917.88,95.438,540.404,539.086,0.0
50179.0,STARLINK-3283,PAYLOAD,2023-06-14 17:24:14,15.08832862,7.78e-05,53.2171,53.6433,86.1876,273.9205,-9.8348e-06,-4.44e-06,0.0,0 STARLINK-3283,1 50179U 21125Z   23165.72517296 -.00000444  00000-0 -98348-5 0  9990,2 50179  53.2171  53.6433 0000778  86.1876 273.9205 15.08832862 85302,6917.902,95.438,540.305,539.229,0.0
50179.0,STARLINK-3283,PAYLOAD,2023-06-15 01:21:10,15.08838279,9.73e-05,53.2174,52.1565,84.906,275.2043,2.9071e-05,1.75e-06,0.0,0 STARLINK-3283,1 50179U 21125Z   23166.05636846  .00000175  00000-0  29071-4 0  9995,2 50179  53.2174  52.1565 0000973  84.9060 275.2043 15.08838279 85351,6917.886,95.438,540.424,539.078,0.0
50179.0,STARLINK-3283,PAYLOAD,2023-06-15 17:15:01,15.08836556,8.23e-05,53.217,49.1825,88.3825,271.7261,4.6099e-06,-2.14e-06,0.0,0 STARLINK-3283,1 50179U 21125Z   23166.71877259 -.00000214  00000-0  46099-5 0  9998,2 50179  53.2170  49.1825 0000823  88.3825 271.7261 15.08836556 85947,6917.891,95.438,540.325,539.187,0.0
50179.0,STARLINK-3283,PAYLOAD,2023-06-16 09:08:52,15.08848366,9.28e-05,53.2181,46.2092,77.2268,282.8828,7.2558e-05,8.67e-06,0.0,0 STARLINK-3283,1 50179U 21125Z   23167.38116263  .00000867  00000-0  72558-4 0  9994,2 50179  53.2181  46.2092 0000928  77.2268 282.8828 15.08848366 85558,6917.855,95.437,540.362,539.078,0.0
50179.0,STARLINK-3283,PAYLOAD,2023-06-16 15:30:25,15.08843021,9.2e-05,53.2181,45.0197,86.1548,273.9549,0.00012753,1.743e-05,0.0,0 STARLINK-3283,1 50179U 21125Z   23167.64612443  .00001743  00000-0  12753-3 0  9998,2 50179  53.2181  45.0197 0000920  86.1548 273.9549 15.08843021 86086,6917.871,95.437,540.373,539.1,0.0
50179.0,STARLINK-3283,PAYLOAD,2023-06-17 08:59:39,15.08837458,8.18e-05,53.2169,41.7478,102.0234,258.085,7.0327e-05,8.32e-06,0.0,0 STARLINK-3283,1 50179U 21125Z   23168.37476702  .00000832  00000-0  70327-4 0  9995,2 50179  53.2169  41.7478 0000818 102.0234 258.0850 15.08837458 85707,6917.888,95.438,540.319,539.187,0.0
50179.0,STARLINK-3283,PAYLOAD,2023-06-17 21:42:45,15.08833828,9.32e-05,53.2163,39.3679,101.9141,258.1956,-5.2935e-05,-1.13e-05,0.0,0 STARLINK-3283,1 50179U 21125Z   23168.90469463 -.00001130  00000-0 -52935-4 0  9999,2 50179  53.2163  39.3679 0000932 101.9141 258.1956 15.08833828 86277,6917.899,95.438,540.409,539.12,0.0
50179.0,STARLINK-3283,PAYLOAD,2023-06-18 00:53:31,15.08833477,9.57e-05,53.2173,38.7747,95.1521,264.958,-4.6705e-05,-1.031e-05,0.0,0 STARLINK-3283,1 50179U 21125Z   23169.03717562 -.00001031  00000-0 -46705-4 0  9998,2 50179  53.2173  38.7747 0000957  95.1521 264.9580 15.08833477 85806,6917.9,95.438,540.427,539.103,0.0
50179.0,STARLINK-3283,PAYLOAD,2023-06-18 08:50:27,15.08838816,9.53e-05,53.2182,37.2879,97.7782,262.3318,-2.8947e-05,-7.48e-06,0.0,0 STARLINK-3283,1 50179U 21125Z   23169.36837217 -.00000748  00000-0 -28947-4 0  9996,2 50179  53.2182  37.2879 0000953  97.7782 262.3318 15.08838816 86342,6917.884,95.438,540.408,539.09,0.0
50179.0,STARLINK-3283,PAYLOAD,2023-06-18 21:33:31,15.08839528,6.5e-05,53.2185,34.907,115.7772,244.3288,0.00012074,1.634e-05,0.0,0 STARLINK-3283,1 50179U 21125Z   23169.89828666  .00001634  00000-0  12074-3 0  9998,2 50179  53.2185  34.9070 0000650 115.7772 244.3288 15.08839528 86422,6917.882,95.438,540.196,539.297,0.0
50179.0,STARLINK-3283,PAYLOAD,2023-06-19 21:24:19,15.08832277,7.81e-05,53.2181,30.4508,91.8288,268.2793,0.00012155,1.647e-05,0.0,0 STARLINK-3283,1 50179U 21125Z   23170.89189339  .00001647  00000-0  12155-3 0  9991,2 50179  53.2181  30.4508 0000781  91.8288 268.2793 15.08832277 86572,6917.904,95.438,540.309,539.229,0.0
50179.0,STARLINK-3283,PAYLOAD,2023-06-20 00:35:05,15.08842259,7.43e-05,53.2176,29.856,86.712,273.3957,0.00011566,1.554e-05,0.0,0 STARLINK-3283,1 50179U 21125Z   23171.02436723  .00001554  00000-0  11566-3 0  9991,2 50179  53.2176  29.8560 0000743  86.7120 273.3957 15.08842259 86101,6917.873,95.437,540.252,539.224,0.0
50179.0,STARLINK-3283,PAYLOAD,2023-06-20 18:04:20,15.08839895,9.25e-05,53.2187,26.584,90.3529,269.7569,2.3732e-05,9e-07,0.0,0 STARLINK-3283,1 50179U 21125Z   23171.75301307  .00000090  00000-0  23732-4 0  9993,2 50179  53.2187  26.5840 0000925  90.3529 269.7569 15.08839895 86216,6917.881,95.438,540.386,539.106,0.0
50179.0,STARLINK-3283,PAYLOAD,2023-06-20 21:15:06,15.08843433,8.57e-05,53.2185,25.9887,108.979,251.1295,2.5223e-05,1.14e-06,0.0,0 STARLINK-3283,1 50179U 21125Z   23171.88548950  .00000114  00000-0  25223-4 0  9998,2 50179  53.2185  25.9887 0000857 108.9790 251.1295 15.08843433 86728,6917.87,95.437,540.328,539.142,0.0
50179.0,STARLINK-3283,PAYLOAD,2023-06-21 21:05:53,15.08837664,8.38e-05,53.2184,21.5288,86.6718,273.437,5.6401e-05,6.1e-06,0.0,0 STARLINK-3283,1 50179U 21125Z   23172.87909504  .00000610  00000-0  56401-4 0  9997,2 50179  53.2184  21.5288 0000838  86.6718 273.4370 15.08837664 86387,6917.888,95.438,540.332,539.173,0.0
50179.0,STARLINK-3283,PAYLOAD,2023-06-23 06:28:59,15.08842377,8.54e-05,53.2183,15.2846,84.8182,275.2907,9.0337e-05,1.15e-05,0.0,0 STARLINK-3283,1 50179U 21125Z   23174.27013443  .00001150  00000-0  90337-4 0  9997,2 50179  53.2183  15.2846 0000854  84.8182 275.2907 15.08842377 86595,6917.873,95.437,540.329,539.147,0.0
50179.0,STARLINK-3283,PAYLOAD,2023-06-23 17:36:42,15.0883565,8.92e-05,53.2181,13.2033,80.1209,279.9884,3.8335e-05,3.22e-06,0.0,0 STARLINK-3283,1 50179U 21125Z   23174.73382133  .00000322  00000-0  38335-4 0  9993,2 50179  53.2181  13.2033 0000892  80.1209 279.9884 15.08835650 86669,6917.894,95.438,540.376,539.142,0.0
50179.0,STARLINK-3283,PAYLOAD,2023-06-23 22:22:51,15.08843364,9.96e-05,53.2187,12.3092,77.9559,282.1545,7.4029e-05,8.91e-06,0.0,0 STARLINK-3283,1 50179U 21125Z   23174.93253567  .00000891  00000-0  74029-4 0  9994,2 50179  53.2187  12.3092 0000996  77.9559 282.1545 15.08843364 86691,6917.87,95.437,540.424,539.046,0.0
50179.0,STARLINK-3283,PAYLOAD,2023-06-24 06:19:47,15.08837424,8.45e-05,53.2177,10.8238,83.2307,276.8782,5.3308e-05,5.61e-06,0.0,0 STARLINK-3283,1 50179U 21125Z   23175.26373973  .00000561  00000-0  53308-4 0  9996,2 50179  53.2177  10.8238 0000845  83.2307 276.8782 15.08837424 86748,6917.888,95.438,540.338,539.169,0.0
